     2.11           N: GPS NAV DATA                         RINEX VERSION / TYPE
CONVBIN 2.4.3                           20210902 201812 UTC PGM / RUN BY / DATE 
log: logs/21_09_01_11_42_59_brdc.rtcm                       COMMENT             
format: RTCM 3                                              COMMENT             
                                                            END OF HEADER       
 6 21  9  1 12  0  0.0  .662603415549E-04  .693489710102E-11  .000000000000E+00
     .105000000000E+03 -.539687500000E+02  .415838749925E-08  .161999078444E+01
    -.278092920780E-05  .215857545845E-02  .346265733242E-05  .515356841278E+04
     .302400000000E+06  .204890966415E-07  .108457347599E+01 -.186264514923E-07
     .984593659227E+00  .322718750000E+03 -.995927963757E+00 -.803247744207E-08
    -.117504894551E-09  .100000000000E+01  .217300000000E+04  .000000000000E+00
     .200000000000E+01  .000000000000E+00  .372529029846E-08  .105000000000E+03
     .259200000000E+06  .400000000000E+01
 7 21  9  1 12  0  0.0  .236751511693E-03  .750333128963E-11  .000000000000E+00
     .750000000000E+02  .158437500000E+02  .486234539335E-08  .707807539802E+00
     .946223735809E-06  .152661339380E-01  .699423253536E-05  .515373460007E+04
     .302400000000E+06 -.236555933952E-06 -.205212466186E+01  .150874257088E-06
     .951190872666E+00  .242250000000E+03 -.230827844593E+01 -.824177187431E-08
    -.299655338991E-09  .100000000000E+01  .217300000000E+04  .000000000000E+00
     .200000000000E+01  .000000000000E+00 -.111758708954E-07  .750000000000E+02
     .259200000000E+06  .400000000000E+01
 8 21  9  1 12  0  0.0 -.348254106939E-04 -.136424205266E-11  .000000000000E+00
     .170000000000E+02  .659062500000E+02  .443018453497E-08 -.264477618831E+01
     .343099236488E-05  .644206290599E-02  .521168112755E-05  .515364769936E+04
     .302400000000E+06 -.614672899246E-07  .165746775104E-01 -.800937414169E-07
     .966756841829E+00  .285968750000E+03  .565570200555E-01 -.801354808216E-08
     .181078971237E-09  .100000000000E+01  .217300000000E+04  .000000000000E+00
     .200000000000E+01  .000000000000E+00  .512227416039E-08  .170000000000E+02
     .259200000000E+06  .400000000000E+01
 9 21  9  1 12  0  0.0 -.360161066055E-03 -.795807864051E-12  .000000000000E+00
     .440000000000E+02 -.537500000000E+01  .468626663039E-08 -.229489424792E+01
    -.311061739922E-06  .209298566915E-02  .819191336632E-05  .515371426773E+04
     .302400000000E+06  .838190317154E-07 -.312420472822E+01  .428408384323E-07
     .954001114890E+00  .219406250000E+03  .181064660570E+01 -.793247327650E-08
     .181078971237E-09  .100000000000E+01  .217300000000E+04  .000000000000E+00
     .200000000000E+01  .000000000000E+00  .139698386192E-08  .440000000000E+02
     .259200000000E+06  .400000000000E+01
10 21  9  1 12  0  0.0 -.194307416677E-03 -.773070496507E-11  .000000000000E+00
     .160000000000E+02 -.777812500000E+02  .422589031101E-08 -.645284530622E+00
    -.424124300480E-05  .686530757230E-02  .820681452751E-05  .515367914009E+04
     .302400000000E+06  .111758708954E-06  .212705948788E+01  .104308128357E-06
     .970279371550E+00  .227500000000E+03 -.258411303809E+01 -.791747265166E-08
    -.106790162525E-09  .100000000000E+01  .217300000000E+04  .000000000000E+00
     .200000000000E+01  .000000000000E+00  .232830643654E-08  .160000000000E+02
     .259200000000E+06  .400000000000E+01
12 21  9  1 12  0  0.0 -.911490060389E-04 -.545696821064E-11  .000000000000E+00
     .510000000000E+02  .525312500000E+02  .417553107049E-08 -.268196464259E-01
     .257603824139E-05  .824157660827E-02  .899843871593E-05  .515368999863E+04
     .302400000000E+06 -.102445483208E-06 -.940310333140E+00  .132247805595E-06
     .972257422584E+00  .217781250000E+03  .123166006683E+01 -.791425823205E-08
    -.151792037033E-09  .100000000000E+01  .217300000000E+04  .000000000000E+00
     .200000000000E+01  .000000000000E+00 -.125728547573E-07  .510000000000E+02
     .259200000000E+06  .400000000000E+01
13 21  9  1 12  0  0.0  .179370399565E-03  .534328137292E-11  .000000000000E+00
     .730000000000E+02 -.200000000000E+01  .427982112887E-08  .300979611825E+01
    -.651925802231E-07  .535120011773E-02  .819191336632E-05  .515367967606E+04
     .302400000000E+06  .428408384323E-07 -.297409200648E+01 -.931322574615E-08
     .968650127000E+00  .224750000000E+03  .959484248885E+00 -.768389149349E-08
     .261439461432E-09  .100000000000E+01  .217300000000E+04  .000000000000E+00
     .200000000000E+01  .000000000000E+00 -.111758708954E-07  .730000000000E+02
     .259200000000E+06  .400000000000E+01
14 21  9  1 12  0  0.0  .108731910586E-04 -.829913915368E-11  .000000000000E+00
     .135000000000E+03  .614375000000E+02  .448518682603E-08 -.518760801155E-01
     .321306288242E-05  .107247603592E-02  .868737697601E-05  .515364925385E+04
     .302400000000E+06  .186264514923E-08 -.968973309011E+00 -.111758708954E-07
     .955693054257E+00  .208406250000E+03  .308557194954E+01 -.797318925819E-08
    -.158220876249E-09  .100000000000E+01  .217300000000E+04  .000000000000E+00
     .200000000000E+01  .000000000000E+00 -.791624188423E-08  .903000000000E+03
     .259200000000E+06  .400000000000E+01
15 21  9  1 11 59 44.0 -.124248676002E-03  .272848410532E-11  .000000000000E+00
     .200000000000E+01 -.145000000000E+02  .507878298027E-08  .265697612341E+01
    -.860542058945E-06  .135814487003E-01  .850670039654E-05  .515367022705E+04
     .302384000000E+06  .949949026108E-07  .305739389591E+01 -.173225998878E-06
     .929729242703E+00  .196875000000E+03  .101890210911E+01 -.797818946647E-08
     .253939149013E-09  .100000000000E+01  .217300000000E+04  .000000000000E+00
     .200000000000E+01  .000000000000E+00 -.107102096081E-07  .200000000000E+01
     .259200000000E+06  .400000000000E+01
16 21  9  1 12  0  0.0 -.383320264518E-03 -.636646291241E-11  .000000000000E+00
     .210000000000E+02  .582187500000E+02  .409481342256E-08 -.184479109173E+01
     .273995101452E-05  .121978076641E-01  .791251659393E-05  .515375144577E+04
     .302400000000E+06  .117346644402E-06 -.921605727366E+00 -.149011611938E-06
     .972299769674E+00  .228531250000E+03  .680309405137E+00 -.764067540766E-08
    -.203579908492E-10  .100000000000E+01  .217300000000E+04  .000000000000E+00
     .200000000000E+01  .000000000000E+00 -.102445483208E-07  .210000000000E+02
     .259200000000E+06  .400000000000E+01
17 21  9  1 11 59 44.0  .498190987855E-03  .579802872380E-11  .000000000000E+00
     .120000000000E+02  .699062500000E+02  .413624371972E-08 -.269141582777E+01
     .364147126675E-05  .134996310808E-01  .425986945629E-05  .515365719795E+04
     .302384000000E+06  .167638063431E-06  .959345308240E-01  .104308128357E-06
     .981667205717E+00  .305625000000E+03 -.155925132256E+01 -.779103881375E-08
     .234295473633E-09  .100000000000E+01  .217300000000E+04  .000000000000E+00
     .200000000000E+01  .000000000000E+00 -.111758708954E-07  .120000000000E+02
     .259200000000E+06  .400000000000E+01
18 21  9  1 12  0  0.0  .327086076140E-03 -.397903932026E-11  .000000000000E+00
     .229000000000E+03 -.421875000000E+02  .455483258420E-08  .165180695004E+01
    -.209547579288E-05  .187990895938E-02  .340305268764E-05  .515365282822E+04
     .302400000000E+06  .111758708954E-06  .110312691405E+01 -.428408384323E-07
     .968899105417E+00  .316656250000E+03  .292817466381E+01 -.826927301984E-08
    -.725030200418E-10  .100000000000E+01  .217300000000E+04  .000000000000E+00
     .200000000000E+01  .000000000000E+00 -.838190317154E-08  .229000000000E+03
     .259200000000E+06  .400000000000E+01
19 21  9  1 12  0  0.0  .472152605653E-04  .500222085975E-11  .000000000000E+00
     .450000000000E+02  .578125000000E+02  .423446209663E-08 -.311608599223E+00
     .299140810966E-05  .916888902429E-02  .474415719509E-05  .515364971924E+04
     .302400000000E+06 -.126659870148E-06  .140957296169E+00 -.689178705215E-07
     .980275375216E+00  .300343750000E+03  .193242881141E+01 -.818498379457E-08
     .199651173416E-09  .100000000000E+01  .217300000000E+04  .000000000000E+00
     .200000000000E+01  .000000000000E+00 -.153668224812E-07  .450000000000E+02
     .259200000000E+06  .400000000000E+01
20 21  9  1 12  0  0.0  .519351568073E-03 -.227373675443E-12  .000000000000E+00
     .640000000000E+02 -.972187500000E+02  .482412951579E-08  .250177431052E+01
    -.493228435516E-05  .551599392202E-02  .767968595028E-05  .515365113258E+04
     .302400000000E+06 -.894069671631E-07  .198080579189E+01  .115483999252E-06
     .939359089677E+00  .222718750000E+03  .297531482313E+01 -.814712507475E-08
    -.582167106740E-10  .100000000000E+01  .217300000000E+04  .000000000000E+00
     .200000000000E+01  .000000000000E+00 -.838190317154E-08  .640000000000E+02
     .259200000000E+06  .400000000000E+01
21 21  9  1 12  0  0.0  .140403863043E-03  .204636307899E-11  .000000000000E+00
     .640000000000E+02 -.389687500000E+02  .460626329793E-08 -.259605809190E+01
    -.160932540894E-05  .240718994755E-01  .276789069176E-05  .515364988327E+04
     .302400000000E+06  .204890966415E-07  .100645442883E+01  .329688191414E-06
     .957939024108E+00  .318562500000E+03 -.109119088498E+01 -.789211445253E-08
     .678599694973E-10  .100000000000E+01  .217300000000E+04  .000000000000E+00
     .200000000000E+01  .000000000000E+00 -.102445483208E-07  .640000000000E+02
     .259200000000E+06  .400000000000E+01
